NAME,CITY,Full Address,latitude,longitude,COMPLETION,Meters,Feet,FLOORS,MATERIAL,FUNCTION
Burj Khalifa,Dubai,Burj Khalifa Dubai ,25.197197,55.2743764,2010,828 m,"2,717 ft",163,steel/concrete,office / residential / hotel
Shanghai Tower,Shanghai,Shanghai Tower Shanghai ,31.233518,121.505618,2015,632 m,"2,073 ft",128,composite,hotel / office
Makkah Royal Clock Tower,Mecca,Makkah Royal Clock Tower Mecca ,21.4186828,39.8252756,2012,601 m,"1,972 ft",120,steel/concrete,other / hotel
Ping An Finance Center,Shenzhen,Ping An Finance Center Shenzhen ,22.533096,114.055865,2017,599.1 m,"1,965 ft",115,composite,office
Lotte World Tower,Seoul,Lotte World Tower Seoul ,37.5124705,127.1023832,2017,554.5 m,"1,819 ft",123,composite,hotel / residential / office / retail
One World Trade Center,New York City,One World Trade Center New York City ,40.7127431,-74.0133795,2014,541.3 m,"1,776 ft",94,composite,office
Guangzhou CTF Finance Centre,Guangzhou,Guangzhou CTF Finance Centre Guangzhou ,23.1175997,113.3259267,2016,530 m,"1,739 ft",111,composite,hotel / residential / office
Tianjin CTF Finance Centre,Tianjin,Tianjin CTF Finance Centre Tianjin ,39.021667,117.698056,2019,530 m,"1,739 ft",97,composite,hotel / serviced apartments / office
CITIC Tower,Beijing,CITIC Tower Beijing ,39.930818,116.4359296,2018,527.7 m,"1,731 ft",109,composite,office
TAIPEI 101,Taipei,TAIPEI 101 Taipei ,25.0336752,121.5648831,2004,508 m,"1,667 ft",101,composite,office
Shanghai World Financial Center,Shanghai,Shanghai World Financial Center Shanghai ,31.2342797,121.5079157,2008,492 m,"1,614 ft",101,composite,hotel / office
International Commerce Centre,Hong Kong,International Commerce Centre Hong Kong ,22.3034032,114.1601907,2010,484 m,"1,588 ft",108,composite,hotel / office
Central Park Tower,New York City,Central Park Tower New York City ,40.7661169,-73.980933,2020,472.4 m,"1,550 ft",98,concrete,residential
Lakhta Center,St. Petersburg,Lakhta Center St. Petersburg ,59.9870885,30.1777433,2019,462 m,"1,516 ft",87,composite,office
Vincom Landmark 81,Ho Chi Minh City,Vincom Landmark 81 Ho Chi Minh City ,10.7946436,106.7221662,2018,461.2 m,"1,513 ft",81,composite,hotel / residential
Changsha IFS Tower T1,Changsha,Changsha IFS Tower T1 Changsha ,28.191892,112.97693,2018,452.1 m,"1,483 ft",94,composite,hotel / office
Petronas Twin Tower 1,Kuala Lumpur,Petronas Twin Tower 1 Kuala Lumpur ,3.1579603,101.7117668,1998,451.9 m,"1,483 ft",88,composite,office
Petronas Twin Tower 2,Kuala Lumpur,Petronas Twin Tower 2 Kuala Lumpur ,3.1579603,101.7117668,1998,451.9 m,"1,483 ft",88,composite,office
Suzhou IFS,Suzhou,Suzhou IFS Suzhou ,31.3222031,120.7171222,2019,450 m,"1,476 ft",95,composite,hotel / office / serviced apartments
Zifeng Tower,Nanjing,Zifeng Tower Nanjing ,32.062472,118.778056,2010,450 m,"1,476 ft",66,composite,hotel / office
The Exchange 106,Kuala Lumpur,The Exchange 106 Kuala Lumpur ,3.1418361,101.7186957,2019,445.5 m,"1,462 ft",95,composite,office
Wuhan Center Tower,Wuhan,Wuhan Center Tower Wuhan ,30.580437,114.268548,2019,443.1 m,"1,454 ft",88,composite,hotel / residential / office
Willis Tower,Chicago,Willis Tower Chicago ,41.8788764,-87.6359149,1974,442.1 m,"1,451 ft",108,steel,office
KK100,Shenzhen,KK100 Shenzhen ,22.542218,114.106514,2011,441.8 m,"1,449 ft",98,composite,hotel / office
Guangzhou International Finance Center,Guangzhou,Guangzhou International Finance Center Guangzhou ,23.1177169,113.3232779,2010,438.6 m,"1,439 ft",103,composite,hotel / office
One Vanderbilt,New York City,One Vanderbilt New York City ,40.7529967,-73.9784836,2020,427 m,"1,401 ft",59,composite,office
432 Park Avenue,New York City,432 Park Avenue New York City ,40.761648,-73.9717602,2015,425.7 m,"1,397 ft",85,concrete,residential
Marina 101,Dubai,Marina 101 Dubai ,25.0889075,55.1485697,2017,425 m,"1,394 ft",101,concrete,residential / hotel
Trump International Hotel & Tower,Chicago,Trump International Hotel & Tower Chicago ,41.888868,-87.626394,2009,423.2 m,"1,389 ft",98,concrete,residential / hotel
Jin Mao Tower,Shanghai,Jin Mao Tower Shanghai ,31.2352515,121.5057491,1999,420.5 m,"1,380 ft",88,composite,hotel / office
Princess Tower,Dubai,Princess Tower Dubai ,25.0887804,55.1468951,2012,413.4 m,"1,356 ft",101,steel/concrete,residential
Al Hamra Tower,Kuwait City,Al Hamra Tower Kuwait City ,29.3790539,47.9932879,2011,412.6 m,"1,354 ft",80,concrete,office
Two International Finance Centre,Hong Kong,Two International Finance Centre Hong Kong ,22.28588,114.158131,2003,412 m,"1,352 ft",88,composite,office
LCT The Sharp Landmark Tower,Busan,LCT The Sharp Landmark Tower Busan ,35.1610625,129.1684375,2019,411.6 m,"1,350 ft",101,concrete,hotel / residential
Guangxi China Resources Tower,Nanning,Guangxi China Resources Tower Nanning ,22.817002,108.366543,2020,402.7 m,"1,321 ft",86,composite,hotel / office
Guiyang International Financial Center T1,Guiyang,Guiyang International Financial Center T1 Guiyang ,26.647794,106.647407,2020,401 m,"1,316 ft",79,composite,hotel / office
China Resources Tower,Shenzhen,China Resources Tower Shenzhen ,22.5126787,113.9457475,2018,392.5 m,"1,288 ft",68,composite,office
23 Marina,Dubai,23 Marina Dubai ,25.0897173,55.1506471,2012,392.4 m,"1,287 ft",88,concrete,residential
CITIC Plaza,Guangzhou,CITIC Plaza Guangzhou ,23.1423581,113.3247658,1996,390.2 m,"1,280 ft",80,composite,office
Shum Yip Upperhills Tower 1,Shenzhen,Shum Yip Upperhills Tower 1 Shenzhen ,22.6433733,114.0232686,2020,388.1 m,"1,273 ft",80,composite,hotel / office
30 Hudson Yards,New York City,30 Hudson Yards New York City ,40.753576,-74.0032041,2019,387.1 m,"1,270 ft",73,steel,office
Shun Hing Square,Shenzhen,Shun Hing Square Shenzhen ,22.545278,114.105833,1996,384 m,"1,260 ft",69,composite,office
Eton Place Dalian Tower 1,Dalian,Eton Place Dalian Tower 1 Dalian ,38.9165077,121.6307827,2016,383.2 m,"1,257 ft",80,composite,hotel / office
Nanning Logan Century 1,Nanning,Nanning Logan Century 1 Nanning ,22.817002,108.366543,2018,381.3 m,"1,251 ft",82,composite,hotel / office
Burj Mohammed Bin Rashid,Abu Dhabi,Burj Mohammed Bin Rashid Abu Dhabi ,24.486755,54.3578424,2014,381.2 m,"1,251 ft",88,concrete,residential
Empire State Building,New York City,Empire State Building New York City ,40.7484405,-73.9856644,1931,381 m,"1,250 ft",102,steel,office
Elite Residence,Dubai,Elite Residence Dubai ,25.0895735,55.1478445,2012,380.5 m,"1,248 ft",87,concrete,residential
Central Plaza,Hong Kong,Central Plaza Hong Kong ,22.2799097,114.1737282,1992,373.9 m,"1,227 ft",78,concrete,office
Federation Tower,Moscow,Federation Tower Moscow ,55.7464477,37.5365228,2016,373.7 m,"1,226 ft",93,concrete,residential / office
Dalian International Trade Center,Dalian,Dalian International Trade Center Dalian ,38.920574,121.637787,2019,370.2 m,"1,214 ft",86,composite,residential / office
The Address Boulevard,Dubai,The Address Boulevard Dubai ,25.2002648,55.2760223,2017,370 m,"1,214 ft",73,concrete,residential / hotel / retail
Golden Eagle Tiandi Tower A,Nanjing,Golden Eagle Tiandi Tower A Nanjing ,40.7982133,-77.8599084,2019,368.1 m,"1,208 ft",77,composite,hotel / office
Bank of China Tower,Hong Kong,Bank of China Tower Hong Kong ,22.2793043,114.1614931,1990,367.4 m,"1,205 ft",72,composite,office
Bank of America Tower,New York City,Bank of America Tower New York City ,40.755608,-73.9849349,2009,365.8 m,"1,200 ft",55,composite,office
St. Regis Chicago,Chicago,St. Regis Chicago Chicago ,41.8874485,-87.6174981,2020,362.9 m,"1,191 ft",101,concrete,residential / hotel
Almas Tower,Dubai,Almas Tower Dubai ,25.0689836,55.1412048,2008,360 m,"1,181 ft",68,concrete,office
Hanking Center,Shenzhen,Hanking Center Shenzhen ,22.543096,114.057865,2018,358.9 m,"1,177 ft",65,composite,office
Gevora Hotel,Dubai,Gevora Hotel Dubai ,25.2125083,55.2769667,2017,356.3 m,"1,169 ft",75,steel/concrete,hotel
JW Marriott Marquis Hotel Dubai Tower 1,Dubai,JW Marriott Marquis Hotel Dubai Tower 1 Dubai ,25.1854005,55.2580876,2012,355.4 m,"1,166 ft",82,concrete,hotel
JW Marriott Marquis Hotel Dubai Tower 2,Dubai,JW Marriott Marquis Hotel Dubai Tower 2 Dubai ,25.1854005,55.2580876,2013,355.4 m,"1,166 ft",82,concrete,hotel
Emirates Tower One,Dubai,Emirates Tower One Dubai ,25.217603,55.2828107,2000,354.6 m,"1,163 ft",54,composite,office
Raffles City Chongqing T3N,Chongqing,Raffles City Chongqing T3N Chongqing ,29.563428,106.588509,2019,354.5 m,"1,163 ft",79,composite,residential / retail
Raffles City Chongqing T4N,Chongqing,Raffles City Chongqing T4N Chongqing ,29.563428,106.588509,2019,354.5 m,"1,163 ft",74,composite,hotel / office / retail
OKO - Residential Tower,Moscow,OKO - Residential Tower Moscow ,55.7499443,37.5343747,2015,354.2 m,"1,162 ft",90,concrete,residential / serviced apartments / hotel
The Torch,Dubai,The Torch Dubai ,25.087942,55.1475,2011,352 m,"1,155 ft",86,concrete,residential
Forum 66 Tower 1,Shenyang,Forum 66 Tower 1 Shenyang ,41.804386,123.433881,2015,350.6 m,"1,150 ft",68,composite,hotel / office
The Pinnacle,Guangzhou,The Pinnacle Guangzhou ,23.1250438,113.3234639,2012,350.3 m,"1,149 ft",60,concrete,office
Spring City 66,Kunming,Spring City 66 Kunming ,24.880095,102.832891,2019,349 m,"1,145 ft",61,composite,office
85 Sky Tower,Kaohsiung,85 Sky Tower Kaohsiung ,22.611518,120.300315,1997,347.5 m,"1,140 ft",85,steel,hotel / office / retail
Shimao Hunan Center,Changsha,Shimao Hunan Center Changsha ,28.2274307,112.9386753,2019,347 m,"1,138 ft",N/A,composite,office
Aon Center,Chicago,Aon Center Chicago ,41.8852828,-87.6215121,1973,346.3 m,"1,136 ft",83,steel,office
The Center,Hong Kong,The Center Hong Kong ,22.2846202,114.1547347,1998,346 m,"1,135 ft",73,steel,office
NEVA TOWERS 2,Moscow,NEVA TOWERS 2 Moscow ,55.7514248,37.5356575,2020,345 m,"1,132 ft",79,concrete,residential
875 North Michigan Avenue,Chicago,875 North Michigan Avenue Chicago ,41.898883,-87.6231503,1969,343.7 m,"1,128 ft",100,steel,residential / office
Four Seasons Place,Kuala Lumpur,Four Seasons Place Kuala Lumpur ,3.1581663,101.7135536,2018,342.5 m,"1,124 ft",74,concrete,residential / hotel
ADNOC Headquarters,Abu Dhabi,ADNOC Headquarters Abu Dhabi ,24.4619703,54.3242125,2015,342 m,"1,122 ft",65,concrete,office
One Shenzhen Bay Tower 7,Shenzhen,One Shenzhen Bay Tower 7 Shenzhen ,22.543096,114.057865,2018,341.4 m,"1,120 ft",71,composite,residential / hotel / office
LCT The Sharp Residential Tower A,Busan,LCT The Sharp Residential Tower A Busan ,35.1610625,129.1684375,2019,339.1 m,"1,113 ft",85,concrete,residential
Comcast Technology Center,Philadelphia,Comcast Technology Center Philadelphia ,39.954956,-75.1706008,2018,339.1 m,"1,112 ft",59,composite,hotel / office
Wuxi International Finance Square,Wuxi,Wuxi International Finance Square Wuxi ,31.491169,120.31191,2014,339 m,"1,112 ft",68,composite,hotel / office
Heartland 66 Office Tower,Wuhan,Heartland 66 Office Tower Wuhan ,30.592849,114.305539,2020,339 m,"1,112 ft",60,composite,office
Chongqing World Financial Center,Chongqing,Chongqing World Financial Center Chongqing ,29.559143,106.577798,2015,338.9 m,"1,112 ft",72,composite,hotel / office
Mercury City Tower,Moscow,Mercury City Tower Moscow ,55.750556,37.539611,2013,338.8 m,"1,112 ft",75,concrete,residential / office
Suning Plaza Tower 1,Zhenjiang,Suning Plaza Tower 1 Zhenjiang ,32.187849,119.425836,2018,338 m,"1,109 ft",75,composite,hotel / serviced apartments / SOHO / office
Tianjin Modern City Office Tower,Tianjin,Tianjin Modern City Office Tower Tianjin ,39.119243,117.197308,2016,338 m,"1,109 ft",65,composite,office
Hengqin International Finance Center,Zhuhai,Hengqin International Finance Center Zhuhai ,22.1274462,113.5293933,2020,337.7 m,"1,108 ft",69,composite,residential / office
Tianjin World Financial Center,Tianjin,Tianjin World Financial Center Tianjin ,39.1297658,117.2030415,2011,336.9 m,"1,105 ft",75,composite,office
SLS Dubai,Dubai,SLS Dubai Dubai ,25.1848541,55.2922759,2020,336 m,"1,102 ft",78,concrete,serviced apartments / hotel
Wilshire Grand Center,Los Angeles,Wilshire Grand Center Los Angeles ,34.0500114,-118.2611838,2017,335.3 m,"1,100 ft",62,composite,hotel / office
DAMAC Heights,Dubai,DAMAC Heights Dubai ,25.08728,55.145627,2018,335.1 m,"1,099 ft",88,concrete,residential
"Twin Towers Guiyang, East Tower",Guiyang,"Twin Towers Guiyang, East Tower Guiyang ",26.647661,106.630153,2020,335 m,"1,099 ft",74,composite,office
"Twin Towers Guiyang, West Tower",Guiyang,"Twin Towers Guiyang, West Tower Guiyang ",26.647661,106.630153,2020,335 m,"1,099 ft",74,composite,hotel / office
Shimao International Plaza,Shanghai,Shimao International Plaza Shanghai ,31.2343464,121.4760796,2006,333.3 m,"1,094 ft",60,concrete,hotel / office / retail
LCT The Sharp Residential Tower B,Busan,LCT The Sharp Residential Tower B Busan ,35.1610625,129.1684375,2019,333.1 m,"1,093 ft",85,concrete,residential
Rose Rayhaan by Rotana,Dubai,Rose Rayhaan by Rotana Dubai ,25.211845,55.2765543,2007,333 m,"1,093 ft",71,composite,hotel
Jinan Center Financial City A5-3,Jinan,Jinan Center Financial City A5-3 Jinan ,36.6512,117.120095,2020,333 m,"1,093 ft",69,composite,hotel / office
The Address Residence - Fountain Views III,Dubai,The Address Residence - Fountain Views III Dubai ,25.1945452,55.2820408,2019,331.8 m,"1,089 ft",77,concrete,serviced apartments / hotel
Minsheng Bank Building,Wuhan,Minsheng Bank Building Wuhan ,30.594394,114.272755,2008,331 m,"1,086 ft",68,steel,office
China World Tower,Beijing,China World Tower Beijing ,39.909511,116.458172,2010,330 m,"1,083 ft",74,composite,hotel / office
Yuexiu Fortune Center Tower 1,Wuhan,Yuexiu Fortune Center Tower 1 Wuhan ,30.569091,114.2504732,2017,330 m,"1,083 ft",68,composite,office
